[{"OBJECT_NAME":"STARLINK-5945","OBJECT_ID":"2023-042AJ","EPOCH":"2026-03-08T07:54:44.593920","MEAN_MOTION":15.02709363,"ECCENTRICITY":0.00016068,"INCLINATION":43.005,"RA_OF_ASC_NODE":50.6711,"ARG_OF_PERICENTER":226.2278,"MEAN_ANOMALY":133.8432,"EPHEMERIS_TYPE":0,"CLASSIFICATION_TYPE":"U","NORAD_CAT_ID":56018,"ELEMENT_SET_NO":999,"REV_AT_EPOCH":16285,"BSTAR":0.0016951531,"MEAN_MOTION_DOT":0.00022875,"MEAN_MOTION_DDOT":0},{"OBJECT_NAME":"FENGYUN 1C DEB","OBJECT_ID":"1999-025AJJ","EPOCH":"2026-03-09T18:40:58.380672","MEAN_MOTION":15.18672988,"ECCENTRICITY":0.00638575,"INCLINATION":98.7226,"RA_OF_ASC_NODE":259.4919,"ARG_OF_PERICENTER":168.3626,"MEAN_ANOMALY":191.9098,"EPHEMERIS_TYPE":0,"CLASSIFICATION_TYPE":"U","NORAD_CAT_ID":30520,"ELEMENT_SET_NO":999,"REV_AT_EPOCH":2360,"BSTAR":0.0014000942,"MEAN_MOTION_DOT":0.0003064,"MEAN_MOTION_DDOT":0}]
